[
    {
        "Altitude(m)": 612502.1914174829,
        "Argument of Periapsis(deg)": 0.0,
        "Eccentricity": 0.0,
        "Inclination(deg)": 60.0,
        "Latitude(deg)": -28.135962821568608,
        "Longitude(deg)": 127.14821882684001,
        "Mean Anomaly(deg)": -32.72730000000006,
        "RAAN(deg)": 245.0,
        "Satellite Name": "Test1 1098",
        "Satellite Number": 1098,
        "Semi-Major Axis(m)": 6980739.136638005,
        "Time(s)": 0
    },
    {
        "Altitude(m)": 612308.6394533201,
        "Argument of Periapsis(deg)": 0.00010418945913296404,
        "Eccentricity": 0.0,
        "Inclination(deg)": 60.0,
        "Latitude(deg)": -27.623018481725893,
        "Longitude(deg)": 127.50169359839796,
        "Mean Anomaly(deg)": -32.10719385453821,
        "RAAN(deg)": 244.99957995086027,
        "Satellite Name": "Test1 1098",
        "Satellite Number": 1098,
        "Semi-Major Axis(m)": 6980739.136638005,
        "Time(s)": 10
    },
    {
        "Altitude(m)": 612116.0563923055,
        "Argument of Periapsis(deg)": 0.0002083789182659281,
        "Eccentricity": 0.0,
        "Inclination(deg)": 60.0,
        "Latitude(deg)": -27.108905277167647,
        "Longitude(deg)": 127.85151721096793,
        "Mean Anomaly(deg)": -31.487087709076356,
        "RAAN(deg)": 244.9991599017205,
        "Satellite Name": "Test1 1098",
        "Satellite Number": 1098,
        "Semi-Major Axis(m)": 6980739.136638005,
        "Time(s)": 20
    },
    {
        "Altitude(m)": 611924.5118209994,
        "Argument of Periapsis(deg)": 0.00031256837739889213,
        "Eccentricity": 0.0,
        "Inclination(deg)": 60.0,
        "Latitude(deg)": -26.593657523393265,
        "Longitude(deg)": 128.19779408089667,
        "Mean Anomaly(deg)": -30.866981563614555,
        "RAAN(deg)": 244.9987398525808,
        "Satellite Name": "Test1 1098",
        "Satellite Number": 1098,
        "Semi-Major Axis(m)": 6980739.136638005,
        "Time(s)": 30
    },
    {
        "Altitude(m)": 611734.0747193339,
        "Argument of Periapsis(deg)": 0.0004167578365318562,
        "Eccentricity": 0.0,
        "Inclination(deg)": 60.0,
        "Latitude(deg)": -26.07730868655811,
        "Longitude(deg)": 128.5406269069461,
        "Mean Anomaly(deg)": -30.2468754181527,
        "RAAN(deg)": 244.99831980344103,
        "Satellite Name": "Test1 1098",
        "Satellite Number": 1098,
        "Semi-Major Axis(m)": 6980739.136638005,
        "Time(s)": 40
    },
    {
        "Altitude(m)": 611544.813430128,
        "Argument of Periapsis(deg)": 0.0005209472956648203,
        "Eccentricity": 0.0,
        "Inclination(deg)": 60.0,
        "Latitude(deg)": -25.559891415874826,
        "Longitude(deg)": 128.88011572555325,
        "Mean Anomaly(deg)": -29.62676927269085,
        "RAAN(deg)": 244.9978997543013,
        "Satellite Name": "Test1 1098",
        "Satellite Number": 1098,
        "Semi-Major Axis(m)": 6980739.136638005,
        "Time(s)": 50
    },
    {
        "Altitude(m)": 611356.7956288481,
        "Argument of Periapsis(deg)": 0.0006251367547977843,
        "Eccentricity": 0.0,
        "Inclination(deg)": 60.0,
        "Latitude(deg)": -25.041437574912003,
        "Longitude(deg)": 129.216358478208,
        "Mean Anomaly(deg)": -29.006663127228993,
        "RAAN(deg)": 244.99747970516154,
        "Satellite Name": "Test1 1098",
        "Satellite Number": 1098,
        "Semi-Major Axis(m)": 6980739.136638005,
        "Time(s)": 60
    },
    {
        "Altitude(m)": 611170.0882936881,
        "Argument of Periapsis(deg)": 0.0007293262139307483,
        "Eccentricity": 0.0,
        "Inclination(deg)": 60.0,
        "Latitude(deg)": -24.52197827182698,
        "Longitude(deg)": 129.5494515780192,
        "Mean Anomaly(deg)": -28.386556981767193,
        "RAAN(deg)": 244.99705965602183,
        "Satellite Name": "Test1 1098",
        "Satellite Number": 1098,
        "Semi-Major Axis(m)": 6980739.136638005,
        "Time(s)": 70
    },
    {
        "Altitude(m)": 610984.7576759454,
        "Argument of Periapsis(deg)": 0.0008335156730637124,
        "Eccentricity": 0.0,
        "Inclination(deg)": 60.0,
        "Latitude(deg)": -24.001543888568353,
        "Longitude(deg)": 129.87948896254326,
        "Mean Anomaly(deg)": -27.76645083630534,
        "RAAN(deg)": 244.99663960688207,
        "Satellite Name": "Test1 1098",
        "Satellite Number": 1098,
        "Semi-Major Axis(m)": 6980739.136638005,
        "Time(s)": 80
    },
    {
        "Altitude(m)": 610800.8692707389,
        "Argument of Periapsis(deg)": 0.0009377051321966765,
        "Eccentricity": 0.0,
        "Inclination(deg)": 60.0,
        "Latitude(deg)": -23.480164109088655,
        "Longitude(deg)": 130.20656265858096,
        "Mean Anomaly(deg)": -27.146344690843485,
        "RAAN(deg)": 244.99621955774234,
        "Satellite Name": "Test1 1098",
        "Satellite Number": 1098,
        "Semi-Major Axis(m)": 6980739.136638005,
        "Time(s)": 90
    },
    {
        "Altitude(m)": 610618.4877880806,
        "Argument of Periapsis(deg)": 0.0010418945913296407,
        "Eccentricity": 0.0,
        "Inclination(deg)": 60.0,
        "Latitude(deg)": -22.957867946600803,
        "Longitude(deg)": 130.5307633460356,
        "Mean Anomaly(deg)": -26.526238545381634,
        "RAAN(deg)": 244.99579950860257,
        "Satellite Name": "Test1 1098",
        "Satellite Number": 1098,
        "Semi-Major Axis(m)": 6980739.136638005,
        "Time(s)": 100
    },
    {
        "Altitude(m)": 610437.6771242942,
        "Argument of Periapsis(deg)": 0.0011460840504626045,
        "Eccentricity": 0.0,
        "Inclination(deg)": 60.0,
        "Latitude(deg)": -22.434683769912787,
        "Longitude(deg)": 130.85217940793376,
        "Mean Anomaly(deg)": -25.90613239991983,
        "RAAN(deg)": 244.99537945946287,
        "Satellite Name": "Test1 1098",
        "Satellite Number": 1098,
        "Semi-Major Axis(m)": 6980739.136638005,
        "Time(s)": 110
    },
    {
        "Altitude(m)": 610258.500333809,
        "Argument of Periapsis(deg)": 0.0012502735095955685,
        "Eccentricity": 0.0,
        "Inclination(deg)": 60.0,
        "Latitude(deg)": -21.91063932887757,
        "Longitude(deg)": 131.17089749233557,
        "Mean Anomaly(deg)": -25.28602625445798,
        "RAAN(deg)": 244.9949594103231,
        "Satellite Name": "Test1 1098",
        "Satellite Number": 1098,
        "Semi-Major Axis(m)": 6980739.136638005,
        "Time(s)": 120
    },
    {
        "Altitude(m)": 610081.0196013438,
        "Argument of Periapsis(deg)": 0.0013544629687285324,
        "Eccentricity": 0.0,
        "Inclination(deg)": 60.0,
        "Latitude(deg)": -21.385761778991146,
        "Longitude(deg)": 131.4870030732472,
        "Mean Anomaly(deg)": -24.66592010899623,
        "RAAN(deg)": 244.99453936118337,
        "Satellite Name": "Test1 1098",
        "Satellite Number": 1098,
        "Semi-Major Axis(m)": 6980739.136638005,
        "Time(s)": 130
    },
    {
        "Altitude(m)": 609905.2962145059,
        "Argument of Periapsis(deg)": 0.0014586524278614966,
        "Eccentricity": 0.0,
        "Inclination(deg)": 60.0,
        "Latitude(deg)": -20.86007770516855,
        "Longitude(deg)": 131.80057949765683,
        "Mean Anomaly(deg)": -24.045813963534375,
        "RAAN(deg)": 244.9941193120436,
        "Satellite Name": "Test1 1098",
        "Satellite Number": 1098,
        "Semi-Major Axis(m)": 6980739.136638005,
        "Time(s)": 140
    },
    {
        "Altitude(m)": 609731.3905368012,
        "Argument of Periapsis(deg)": 0.0015628418869944607,
        "Eccentricity": 0.0,
        "Inclination(deg)": 60.0,
        "Latitude(deg)": -20.333613144735047,
        "Longitude(deg)": 132.11170854443273,
        "Mean Anomaly(deg)": -23.425707818072574,
        "RAAN(deg)": 244.9936992629039,
        "Satellite Name": "Test1 1098",
        "Satellite Number": 1098,
        "Semi-Major Axis(m)": 6980739.136638005,
        "Time(s)": 150
    },
    {
        "Altitude(m)": 609559.3619810512,
        "Argument of Periapsis(deg)": 0.0016670313461274247,
        "Eccentricity": 0.0,
        "Inclination(deg)": 60.0,
        "Latitude(deg)": -19.80639360965976,
        "Longitude(deg)": 132.42047098221573,
        "Mean Anomaly(deg)": -22.80560167261072,
        "RAAN(deg)": 244.99327921376414,
        "Satellite Name": "Test1 1098",
        "Satellite Number": 1098,
        "Semi-Major Axis(m)": 6980739.136638005,
        "Time(s)": 160
    },
    {
        "Altitude(m)": 609389.2689833054,
        "Argument of Periapsis(deg)": 0.0017712208052603888,
        "Eccentricity": 0.0,
        "Inclination(deg)": 60.0,
        "Latitude(deg)": -19.278444108062462,
        "Longitude(deg)": 132.72694561343485,
        "Mean Anomaly(deg)": -22.185495527148966,
        "RAAN(deg)": 244.9928591646244,
        "Satellite Name": "Test1 1098",
        "Satellite Number": 1098,
        "Semi-Major Axis(m)": 6980739.136638005,
        "Time(s)": 170
    },
    {
        "Altitude(m)": 609221.1689771634,
        "Argument of Periapsis(deg)": 0.001875410264393353,
        "Eccentricity": 0.0,
        "Inclination(deg)": 60.0,
        "Latitude(deg)": -18.749789165024485,
        "Longitude(deg)": 133.03120983020196,
        "Mean Anomaly(deg)": -21.565389381687112,
        "RAAN(deg)": 244.99243911548464,
        "Satellite Name": "Test1 1098",
        "Satellite Number": 1098,
        "Semi-Major Axis(m)": 6980739.136638005,
        "Time(s)": 180
    },
    {
        "Altitude(m)": 609055.1183685977,
        "Argument of Periapsis(deg)": 0.0019795997235263173,
        "Eccentricity": 0.0,
        "Inclination(deg)": 60.0,
        "Latitude(deg)": -18.220452842732588,
        "Longitude(deg)": 133.3333401692215,
        "Mean Anomaly(deg)": -20.94528323622531,
        "RAAN(deg)": 244.99201906634494,
        "Satellite Name": "Test1 1098",
        "Satellite Number": 1098,
        "Semi-Major Axis(m)": 6980739.136638005,
        "Time(s)": 190
    }
]